STARLINK-4443           
1 53508U 22099AV  25230.57866480 -.00000209  00000+0 -11656-4 0  9994
2 53508  97.6533 351.2912 0002947 181.8724 178.2489 15.01253562165755
STARLINK-4402           
1 53509U 22099AW  25229.90657348 -.00000046  00000+0  10179-5 0  9999
2 53509  97.6544 350.6230 0003326 162.8128 197.3209 15.01258768165411
STARLINK-4511           
1 53527U 22101A   25230.22155832  .00057753  00000+0  11457-2 0  9994
2 53527  53.2062 235.8881 0007486  43.6389 316.5210 15.46464569165892
STARLINK-4503           
1 53528U 22101B   25230.42252926  .00000562  00000+0  53378-4 0  9995
2 53528  53.2166 266.6231 0001134  74.6814 285.4303 15.08837927165471
STARLINK-4478           
1 53529U 22101C   25229.81900991 -.00000721  00000+0 -27201-4 0  9994
2 53529  53.2154 269.3425 0001269  86.6696 273.4441 15.08843989165389
STARLINK-4482           
1 53530U 22101D   25229.83376058  .00000632  00000+0  57809-4 0  9995
2 53530  53.2167 269.4887 0001264  87.7448 272.3689 15.08835766165386
STARLINK-4487           
1 53531U 22101E   25229.81532960 -.00000111  00000+0  11115-4 0  9993
2 53531  53.2162 269.3484 0001246  83.8872 276.2262 15.08835088165389
STARLINK-4483           
1 53532U 22101F   25229.84844900  .00000549  00000+0  52567-4 0  9997
2 53532  53.2168 269.2024 0001050  81.7642 278.3470 15.08839317165394
STARLINK-4493           
1 53533U 22101G   25230.50717551  .00001100  00000+0  87165-4 0  9990
2 53533  53.2164 266.2348 0001045  69.7985 290.3120 15.08848888165497
STARLINK-4138           
1 53535U 22101J   25230.10604975  .00000592  00000+0  55287-4 0  9997
2 53535  53.2166 268.0448 0001224  77.1023 283.0105 15.08839727165435
STARLINK-4053           
1 53536U 22101K   25230.34619151  .00012471  00000+0  80134-3 0  9993
2 53536  53.2165 256.8893 0001045  99.0088 261.1022 15.08790417165605
STARLINK-4120           
1 53537U 22101L   25230.37196436  .00000273  00000+0  35255-4 0  9995
2 53537  53.2173 266.8238 0001193  86.8442 273.2687 15.08838524165479
STARLINK-4118           
1 53538U 22101M   25229.81992561  .00000241  00000+0  33256-4 0  9990
2 53538  53.2164 259.3298 0001177  84.1362 275.9764 15.08840074166218
STARLINK-4123           
1 53539U 22101N   25229.83740712  .00000698  00000+0  61962-4 0  9993
2 53539  53.2166 269.2509 0001061  85.6009 274.5105 15.08840765165391
STARLINK-4486           
1 53540U 22101P   25230.11533080 -.00000641  00000+0 -22181-4 0  9996
2 53540  53.2161 258.3607 0001121  76.9369 283.1749 15.08832246165569
STARLINK-4485           
1 53541U 22101Q   25229.83004753  .00000424  00000+0  44735-4 0  9990
2 53541  53.2164 269.2835 0001140  88.7767 271.3356 15.08838430166083
STARLINK-4489           
1 53542U 22101R   25229.80890046  .00000831  00000+0  70264-4 0  9994
2 53542  53.2167 259.3783 0001175  70.4059 289.7060 15.08843849166219
STARLINK-4297           
1 53543U 22101S   25230.22105464 -.00000362  00000+0 -46889-5 0  9994
2 53543  53.2154 257.5954 0001119  83.8469 276.2651 15.08835441165582
STARLINK-4303           
1 53544U 22101T   25229.80152492  .00000089  00000+0  23693-4 0  9991
2 53544  53.2166 259.4104 0001057  84.3927 275.7186 15.08840249166197
STARLINK-4475           
1 53545U 22101U   25229.81256564  .00000087  00000+0  23559-4 0  9997
2 53545  53.2165 259.3618 0001196  85.8111 274.3018 15.08837769166216
STARLINK-4477           
1 53546U 22101V   25229.75087097  .00000138  00000+0  26754-4 0  9991
2 53546  53.2167 249.1705 0001094  91.8323 268.2794 15.08835222165665
STARLINK-4474           
1 53547U 22101W   25230.46760718  .00000268  00000+0  34923-4 0  9991
2 53547  53.2163 256.4204 0001226  83.2393 276.8738 15.08840455165629
STARLINK-4513           
1 53548U 22101X   25229.79048891  .00000056  00000+0  21626-4 0  9998
2 53548  53.2166 259.4613 0001213  84.7769 275.3361 15.08836940165528
STARLINK-4518           
1 53550U 22101Z   25230.44921151  .00000120  00000+0  25640-4 0  9996
2 53550  53.2164 256.5043 0001266  83.9997 276.1140 15.08836172165628
STARLINK-4514           
1 53551U 22101AA  25229.79416901  .00000238  00000+0  33069-4 0  9999
2 53551  53.2166 259.4450 0001211  88.8264 271.2867 15.08837519166186
STARLINK-4495           
1 53552U 22101AB  25230.37562683  .00000830  00000+0  70257-4 0  9993
2 53552  53.2160 256.8340 0001187  83.8165 276.2962 15.08832994165617
STARLINK-4501           
1 53553U 22101AC  25229.50711130  .00000637  00000+0  58124-4 0  9994
2 53553  53.2161 260.6072 0001104  78.8846 281.2270 15.08837019166143
STARLINK-4506           
1 53554U 22101AD  25229.77304380  .00000982  00000+0  79776-4 0  9998
2 53554  53.2162 259.5495 0001068  83.7033 276.4080 15.08839367165527
STARLINK-4504           
1 53555U 22101AE  25229.78312760 -.00000021  00000+0  16791-4 0  9994
2 53555  53.2163 259.4944 0001050  81.3887 278.7224 15.08836716166182
STARLINK-4505           
1 53556U 22101AF  25230.22840660 -.00000557  00000+0 -16910-4 0  9999
2 53556  53.2165 257.4954 0001203  89.8057 270.3073 15.08836954165594
STARLINK-4502           
1 53557U 22101AG  25230.37193025 -.00000154  00000+0  84251-5 0  9998
2 53557  53.2165 256.8510 0001203  80.8378 279.2751 15.08835149165612
STARLINK-4494           
1 53558U 22101AH  25229.76699323 -.00000332  00000+0 -27885-5 0  9991
2 53558  53.2160 254.2878 0001298  84.7687 275.3453 15.08835684166258
STARLINK-4508           
1 53559U 22101AJ  25230.49705008 -.00000792  00000+0 -31687-4 0  9996
2 53559  53.2157 256.2910 0001026  78.3861 281.7246 15.08833220165632
STARLINK-4564           
1 53560U 22101AK  25229.34614637  .00000055  00000+0  21512-4 0  9993
2 53560  53.2158 251.6412 0001070  76.0422 284.0689 15.08839802165592
STARLINK-4563           
1 53561U 22101AL  25230.22472584 -.00000329  00000+0 -25617-5 0  9993
2 53561  53.2166 257.5123 0001272  86.8952 273.2186 15.08838990165596
STARLINK-4565           
1 53562U 22101AM  25230.20358362 -.00000124  00000+0  10269-4 0  9997
2 53562  53.2162 247.7511 0001279  82.5418 277.5719 15.08837036165726
STARLINK-4561           
1 53563U 22101AN  25229.74727180 -.00000055  00000+0  14623-4 0  9994
2 53563  53.2167 249.8798 0001049  84.3107 275.8005 15.08838442165655
STARLINK-4577           
1 53564U 22101AP  25230.19621469  .00000337  00000+0  39281-4 0  9998
2 53564  53.2163 247.7066 0001005  74.3698 285.7405 15.08840060165724
STARLINK-4575           
1 53565U 22101AQ  25230.20454238 -.00000700  00000+0 -25885-4 0  9990
2 53565  53.2157 247.7573 0001060  85.6457 274.4656 15.08836620165720
STARLINK-4576           
1 53566U 22101AR  25230.18885842  .00002326  00000+0  16422-3 0  9997
2 53566  53.2159 247.6598 0001146  85.3679 274.7444 15.08823797165726
STARLINK-4585           
1 53567U 22101AS  25230.19990717  .00000807  00000+0  68760-4 0  9992
2 53567  53.2161 247.7289 0001055  79.3521 280.7590 15.08840205165728
STARLINK-4583           
1 53568U 22101AT  25229.78035074  .00000144  00000+0  27158-4 0  9992
2 53568  53.2161 249.3744 0001009  85.5338 274.5770 15.08837043166354
STARLINK-4582           
1 53569U 22101AU  25229.79508841 -.00000143  00000+0  91305-5 0  9997
2 53569  53.2164 249.4676 0001264  83.6777 276.4359 15.08839360166338
STARLINK-4550           
1 53570U 22101AV  25230.44643393  .00000112  00000+0  25152-4 0  9996
2 53570  53.2162 246.4237 0001451  67.4250 292.6896 15.08839386165762
STARLINK-4584           
1 53571U 22101AW  25230.45012781  .00000765  00000+0  66154-4 0  9990
2 53571  53.2162 246.4465 0001266  83.7180 276.3956 15.08840476165761
STARLINK-4555           
1 53572U 22101AX  25229.76192822  .00001072  00000+0  85440-4 0  9999
2 53572  53.2161 249.2647 0000998  79.1814 280.9290 15.08837977165661
STARLINK-4547           
1 53573U 22101AY  25230.43906943  .00000120  00000+0  25605-4 0  9993
2 53573  53.2163 246.3785 0001258  85.7440 274.3696 15.08838159165764
STARLINK-4559           
1 53574U 22101AZ  25230.42803175  .00000764  00000+0  66094-4 0  9997
2 53574  53.2163 246.3110 0001263  80.0705 280.0429 15.08841528165767
STARLINK-4551           
1 53575U 22101BA  25230.17044021  .00001158  00000+0  90823-4 0  9992
2 53575  53.2166 247.5454 0001535  65.8460 294.2693 15.08836509165725
STARLINK-4581           
1 53576U 22101BB  25229.77394128 -.00000119  00000+0  10631-4 0  9999
2 53576  53.2161 249.3331 0001366  87.5021 272.6128 15.08837738166483
STARLINK-4553           
1 53577U 22101BC  25230.43170040  .00000165  00000+0  28482-4 0  9993
2 53577  53.2165 246.3337 0001215  82.5332 277.5798 15.08835588165762
STARLINK-4556           
1 53578U 22101BD  25229.75824529 -.00000687  00000+0 -25083-4 0  9990
2 53578  53.2155 249.2388 0001264  79.5220 280.5914 15.08842611165664
STARLINK-4580           
1 53579U 22101BE  25230.41696074 -.00000028  00000+0  16312-4 0  9991
2 53579  53.2162 246.2419 0001126  75.6330 284.4787 15.08833378165763
STARLINK-4691           
1 53588U 22104A   25229.88435919  .00000417  00000+0  44301-4 0  9992
2 53588  53.2182  79.2886 0001402  87.7821 272.3331 15.08836234165320
STARLINK-4673           
1 53589U 22104B   25229.86593382 -.00000356  00000+0 -43014-5 0  9995
2 53589  53.2182  79.1739 0001433  89.9274 270.1882 15.08837062165177
STARLINK-4689           
1 53590U 22104C   25229.88067507  .00000247  00000+0  33593-4 0  9991
2 53590  53.2184  79.2654 0001391  90.3475 269.7676 15.08833931165198
STARLINK-4674           
1 53591U 22104D   25229.87698594  .00000439  00000+0  45690-4 0  9991
2 53591  53.2168  79.2424 0001307  87.5764 272.5378 15.08838162165194
STARLINK-4672           
1 53592U 22104E   25229.87427856  .00001545  00000+0  11514-3 0  9999
2 53592  53.2169  79.2266 0001114  90.1840 269.9280 15.08830956165174
STARLINK-4681           
1 53594U 22104G   25229.85855999  .00000097  00000+0  24196-4 0  9994
2 53594  53.2176  79.1278 0001381  90.0501 270.0649 15.08841986165318
